{
  "type": "FeatureCollection",
  "features": [
    {
      "type": "Feature",
      "properties": {
        "norad_id": 41772,
        "name": "SKYSAT-C5",
        "group": "resource",
        "lat": 80.89965567916472,
        "lon": -27.598734665782953,
        "alt_km": 450.0388296664987,
        "timestamp": "2025-12-05T04:52:14.979204+00:00",
        "meta_object_name": "SKYSAT-C5",
        "meta_object_id": "2016-058C",
        "meta_epoch": "2025-12-04T01:55:03.025632",
        "meta_mean_motion": 15.35427331,
        "meta_eccentricity": 0.0002903,
        "meta_inclination": 97.0762,
        "meta_ra_of_asc_node": 22.1744,
        "meta_arg_of_pericenter": 128.7771,
        "meta_mean_anomaly": 231.3733,
        "meta_ephemeris_type": 0,
        "meta_classification_type": "U",
        "meta_norad_cat_id": 41772,
        "meta_element_set_no": 999,
        "meta_rev_at_epoch": 51383,
        "meta_bstar": 0.0030293,
        "meta_mean_motion_dot": 0.00105512,
        "meta_mean_motion_ddot": 0,
        "tle_line1": "1 41772U 16058C   25338.07989613  .00105512  00000+0  30293-2 0  9997",
        "tle_line2": "2 41772  97.0762  22.1744 0002903 128.7771 231.3733 15.35427331513837"
      },
      "geometry": {
        "type": "Point",
        "coordinates": [
          -27.598734665782953,
          80.89965567916472
        ]
      }
    },
    {
      "type": "Feature",
      "properties": {
        "norad_id": 41773,
        "name": "SKYSAT-C2",
        "group": "resource",
        "lat": 44.23662399809194,
        "lon": -2.8567223206889554,
        "alt_km": 447.8751744513438,
        "timestamp": "2025-12-05T04:52:14.979213+00:00",
        "meta_object_name": "SKYSAT-C2",
        "meta_object_id": "2016-058D",
        "meta_epoch": "2025-12-04T14:36:53.477856",
        "meta_mean_motion": 15.36993791,
        "meta_eccentricity": 0.0005005,
        "meta_inclination": 97.0364,
        "meta_ra_of_asc_node": 3.4822,
        "meta_arg_of_pericenter": 55.1675,
        "meta_mean_anomaly": 305.004,
        "meta_ephemeris_type": 0,
        "meta_classification_type": "U",
        "meta_norad_cat_id": 41773,
        "meta_element_set_no": 999,
        "meta_rev_at_epoch": 51511,
        "meta_bstar": 0.00064095,
        "meta_mean_motion_dot": 0.00023167,
        "meta_mean_motion_ddot": 0,
        "tle_line1": "1 41773U 16058D   25338.60895229  .00023167  00000+0  64095-3 0  9999",
        "tle_line2": "2 41773  97.0364   3.4822 0005005  55.1675 305.0040 15.36993791515119"
      },
      "geometry": {
        "type": "Point",
        "coordinates": [
          -2.8567223206889554,
          44.23662399809194
        ]
      }
    },
    {
      "type": "Feature",
      "properties": {
        "norad_id": 41774,
        "name": "SKYSAT-C3",
        "group": "resource",
        "lat": 41.7660312309435,
        "lon": 7.065760380753304,
        "alt_km": 430.48014930514,
        "timestamp": "2025-12-05T04:52:14.979222+00:00",
        "meta_object_name": "SKYSAT-C3",
        "meta_object_id": "2016-058E",
        "meta_epoch": "2025-12-04T14:41:23.987616",
        "meta_mean_motion": 15.43974595,
        "meta_eccentricity": 0.0001402,
        "meta_inclination": 96.9306,
        "meta_ra_of_asc_node": 12.739,
        "meta_arg_of_pericenter": 101.9165,
        "meta_mean_anomaly": 258.2241,
        "meta_ephemeris_type": 0,
        "meta_classification_type": "U",
        "meta_norad_cat_id": 41774,
        "meta_element_set_no": 999,
        "meta_rev_at_epoch": 51600,
        "meta_bstar": 0.00075824,
        "meta_mean_motion_dot": 0.00034552,
        "meta_mean_motion_ddot": 0,
        "tle_line1": "1 41774U 16058E   25338.61208319  .00034552  00000+0  75824-3 0  9991",
        "tle_line2": "2 41774  96.9306  12.7390 0001402 101.9165 258.2241 15.43974595516008"
      },
      "geometry": {
        "type": "Point",
        "coordinates": [
          7.065760380753304,
          41.7660312309435
        ]
      }
    },
    {
      "type": "Feature",
      "properties": {
        "norad_id": 41785,
        "name": "ALSAT 1B",
        "group": "resource",
        "lat": 53.432103786628396,
        "lon": -19.305334994077057,
        "alt_km": 647.0514469939762,
        "timestamp": "2025-12-05T04:52:14.979230+00:00",
        "meta_object_name": "ALSAT 1B",
        "meta_object_id": "2016-059C",
        "meta_epoch": "2025-12-04T18:50:14.879616",
        "meta_mean_motion": 14.72062819,
        "meta_eccentricity": 0.0010454,
        "meta_inclination": 97.7818,
        "meta_ra_of_asc_node": 350.9179,
        "meta_arg_of_pericenter": 126.3608,
        "meta_mean_anomaly": 233.8566,
        "meta_ephemeris_type": 0,
        "meta_classification_type": "U",
        "meta_norad_cat_id": 41785,
        "meta_element_set_no": 999,
        "meta_rev_at_epoch": 49197,
        "meta_bstar": 0.00015012,
        "meta_mean_motion_dot": 8.97e-06,
        "meta_mean_motion_ddot": 0,
        "tle_line1": "1 41785U 16059C   25338.78489444  .00000897  00000+0  15012-3 0  9990",
        "tle_line2": "2 41785  97.7818 350.9179 0010454 126.3608 233.8566 14.72062819491974"
      },
      "geometry": {
        "type": "Point",
        "coordinates": [
          -19.305334994077057,
          53.432103786628396
        ]
      }
    },
    {
      "type": "Feature",
      "properties": {
        "norad_id": 41787,
        "name": "PATHFINDER 1",
        "group": "resource",
        "lat": -78.819445746769,
        "lon": 118.31888578557088,
        "alt_km": 696.6312853278578,
        "timestamp": "2025-12-05T04:52:14.979239+00:00",
        "meta_object_name": "PATHFINDER 1",
        "meta_object_id": "2016-059E",
        "meta_epoch": "2025-12-04T12:57:09.766368",
        "meta_mean_motion": 14.67299376,
        "meta_eccentricity": 0.0029989,
        "meta_inclination": 97.8138,
        "meta_ra_of_asc_node": 341.6939,
        "meta_arg_of_pericenter": 106.1048,
        "meta_mean_anomaly": 254.3462,
        "meta_ephemeris_type": 0,
        "meta_classification_type": "U",
        "meta_norad_cat_id": 41787,
        "meta_element_set_no": 999,
        "meta_rev_at_epoch": 49116,
        "meta_bstar": 0.0002744,
        "meta_mean_motion_dot": 1.512e-05,
        "meta_mean_motion_ddot": 0,
        "tle_line1": "1 41787U 16059E   25338.53969637  .00001512  00000+0  27440-3 0  9995",
        "tle_line2": "2 41787  97.8138 341.6939 0029989 106.1048 254.3462 14.67299376491168"
      },
      "geometry": {
        "type": "Point",
        "coordinates": [
          118.31888578557088,
          -78.819445746769
        ]
      }
    },
    {
      "type": "Feature",
      "properties": {
        "norad_id": 41790,
        "name": "SCATSAT 1",
        "group": "resource",
        "lat": -58.98897488509956,
        "lon": 49.56708341175734,
        "alt_km": 673.1724278690881,
        "timestamp": "2025-12-05T04:52:14.979248+00:00",
        "meta_object_name": "SCATSAT 1",
        "meta_object_id": "2016-059H",
        "meta_epoch": "2025-12-04T16:09:14.080032",
        "meta_mean_motion": 14.78893296,
        "meta_eccentricity": 0.005588,
        "meta_inclination": 98.1475,
        "meta_ra_of_asc_node": 35.2428,
        "meta_arg_of_pericenter": 153.5918,
        "meta_mean_anomaly": 206.816,
        "meta_ephemeris_type": 0,
        "meta_classification_type": "U",
        "meta_norad_cat_id": 41790,
        "meta_element_set_no": 999,
        "meta_rev_at_epoch": 7283,
        "meta_bstar": 0.00049643,
        "meta_mean_motion_dot": 3.699e-05,
        "meta_mean_motion_ddot": 0,
        "tle_line1": "1 41790U 16059H   25338.67307963  .00003699  00000+0  49643-3 0  9999",
        "tle_line2": "2 41790  98.1475  35.2428 0055880 153.5918 206.8160 14.78893296 72839"
      },
      "geometry": {
        "type": "Point",
        "coordinates": [
          49.56708341175734,
          -58.98897488509956
        ]
      }
    },
    {
      "type": "Feature",
      "properties": {
        "norad_id": 41875,
        "name": "GOKTURK 1A",
        "group": "resource",
        "lat": 75.69762412478408,
        "lon": 85.83734699605616,
        "alt_km": 676.2419711738085,
        "timestamp": "2025-12-05T04:52:14.979257+00:00",
        "meta_object_name": "GOKTURK 1A",
        "meta_object_id": "2016-073A",
        "meta_epoch": "2025-12-04T18:33:25.675776",
        "meta_mean_motion": 14.6276651,
        "meta_eccentricity": 0.0001251,
        "meta_inclination": 98.1431,
        "meta_ra_of_asc_node": 231.2446,
        "meta_arg_of_pericenter": 82.2061,
        "meta_mean_anomaly": 277.9283,
        "meta_ephemeris_type": 0,
        "meta_classification_type": "U",
        "meta_norad_cat_id": 41875,
        "meta_element_set_no": 999,
        "meta_rev_at_epoch": 48040,
        "meta_bstar": 0.00039606,
        "meta_mean_motion_dot": 1.973e-05,
        "meta_mean_motion_ddot": 0,
        "tle_line1": "1 41875U 16073A   25338.77321384  .00001973  00000+0  39606-3 0  9994",
        "tle_line2": "2 41875  98.1431 231.2446 0001251  82.2061 277.9283 14.62766510480405"
      },
      "geometry": {
        "type": "Point",
        "coordinates": [
          85.83734699605616,
          75.69762412478408
        ]
      }
    }
  ]
}